MALLIGYONG-1            
1 58400U 23179A   23351.85917338  .00006909  00000+0  30914-3 0  9990
2 58400  97.4257 236.2889 0015518 180.0529 180.0708 15.21499175  3995
